$$SOE
2460154.500000000, A.D. 2023-Jul-29 00:00:00.0000, -5.856395152283874E+08, -4.133119019697357E+08, 1.935382367422378E+07,
2460161.500000000, A.D. 2023-Aug-05 00:00:00.0000, -5.814387210666292E+08, -4.192224237782711E+08, 1.945754088733777E+07,
2460168.500000000, A.D. 2023-Aug-12 00:00:00.0000, -5.771614412219231E+08, -4.250777681017548E+08, 1.955869819693947E+07,
2460175.500000000, A.D. 2023-Aug-19 00:00:00.0000, -5.728082391803874E+08, -4.308771649731389E+08, 1.965728234289271E+07,
2460182.500000000, A.D. 2023-Aug-26 00:00:00.0000, -5.683796815179956E+08, -4.366198471686269E+08, 1.975328015172279E+07,
2460189.500000000, A.D. 2023-Sep-02 00:00:00.0000, -5.638763380005921E+08, -4.423050500898611E+08, 1.984667853637993E+07,
2460196.500000000, A.D. 2023-Sep-09 00:00:00.0000, -5.592987816731941E+08, -4.479320117606620E+08, 1.993746448474455E+07,
2460203.500000000, A.D. 2023-Sep-16 00:00:00.0000, -5.546475887701603E+08, -4.534999729963014E+08, 2.002562501674244E+07,
2460210.500000000, A.D. 2023-Sep-23 00:00:00.0000, -5.499233380298102E+08, -4.590081774584787E+08, 2.011114709538671E+07,
2460217.500000000, A.D. 2023-Sep-30 00:00:00.0000, -5.451266097529781E+08, -4.644558704051830E+08, 2.019401762029773E+07,
2460224.500000000, A.D. 2023-Oct-07 00:00:00.0000, -5.402579869590591E+08, -4.698422966781967E+08, 2.027422367534685E+07,
2460231.500000000, A.D. 2023-Oct-14 00:00:00.0000, -5.353180575995943E+08, -4.751667012416183E+08, 2.035175266442588E+07,
2460238.500000000, A.D. 2023-Oct-21 00:00:00.0000, -5.303074146010548E+08, -4.804283306688921E+08, 2.042659217038575E+07,
2460245.500000000, A.D. 2023-Oct-28 00:00:00.0000, -5.252266551613263E+08, -4.856264333181142E+08, 2.049872985274732E+07,
2460252.500000000, A.D. 2023-Nov-04 00:00:00.0000, -5.200763805498285E+08, -4.907602589658419E+08, 2.056815343613842E+07,
2460259.500000000, A.D. 2023-Nov-11 00:00:00.0000, -5.148571962335705E+08, -4.958290584992684E+08, 2.063485072439399E+07,
2460266.500000000, A.D. 2023-Nov-18 00:00:00.0000, -5.095697121096137E+08, -5.008320837311779E+08, 2.069880961517328E+07,
2460273.500000000, A.D. 2023-Nov-25 00:00:00.0000, -5.042145427711691E+08, -5.057685873152533E+08, 2.076001811047882E+07,
2460280.500000000, A.D. 2023-Dec-02 00:00:00.0000, -4.987923077792469E+08, -5.106378227730414E+08, 2.081846431976256E+07,
2460287.500000000, A.D. 2023-Dec-09 00:00:00.0000, -4.933036318621405E+08, -5.154390446915710E+08, 2.087413644378594E+07,
2460294.500000000, A.D. 2023-Dec-16 00:00:00.0000, -4.877491447553058E+08, -5.201715090791188E+08, 2.092702271393508E+07,
2460301.500000000, A.D. 2023-Dec-23 00:00:00.0000, -4.821294803332844E+08, -5.248344731917073E+08, 2.097711131117743E+07,
2460308.500000000, A.D. 2023-Dec-30 00:00:00.0000, -4.764452763739043E+08, -5.294271937810076E+08, 2.102439047322437E+07,
2460315.500000000, A.D. 2024-Jan-06 00:00:00.0000, -4.706971767271327E+08, -5.339489261243728E+08, 2.106884875936314E+07,
2460322.500000000, A.D. 2024-Jan-13 00:00:00.0000, -4.648858327159609E+08, -5.383989256441593E+08, 2.111047503405207E+07,
2460329.500000000, A.D. 2024-Jan-20 00:00:00.0000, -4.590119025461033E+08, -5.427764490318253E+08, 2.114925830891249E+07,
2460336.500000000, A.D. 2024-Jan-27 00:00:00.0000, -4.530760507533346E+08, -5.470807542243235E+08, 2.118518768227041E+07,
2460343.500000000, A.D. 2024-Feb-03 00:00:00.0000, -4.470789481166506E+08, -5.513111001810970E+08, 2.121825233777267E+07,
2460350.500000000, A.D. 2024-Feb-10 00:00:00.0000, -4.410212717596046E+08, -5.554667467526900E+08, 2.124844155260792E+07,
2460357.500000000, A.D. 2024-Feb-17 00:00:00.0000, -4.349037053008953E+08, -5.595469546331828E+08, 2.127574470305502E+07,
2460364.500000000, A.D. 2024-Feb-24 00:00:00.0000, -4.287269390182119E+08, -5.635509853819667E+08, 2.130015126511556E+07,
2460371.500000000, A.D. 2024-Mar-02 00:00:00.0000, -4.224916699961028E+08, -5.674781015477411E+08, 2.132165080477986E+07,
2460378.500000000, A.D. 2024-Mar-09 00:00:00.0000, -4.161986021193063E+08, -5.713275669578964E+08, 2.134023293999377E+07,
2460385.500000000, A.D. 2024-Mar-16 00:00:00.0000, -4.098484455165300E+08, -5.750986469762177E+08, 2.135588725415868E+07,
2460392.500000000, A.D. 2024-Mar-23 00:00:00.0000, -4.034419155584928E+08, -5.787906076198841E+08, 2.136860326128250E+07,
2460399.500000000, A.D. 2024-Mar-30 00:00:00.0000, -3.969797336514188E+08, -5.824027135624250E+08, 2.137837062613717E+07,
2460406.500000000, A.D. 2024-Apr-06 00:00:00.0000, -3.904626295698603E+08, -5.859342283902926E+08, 2.138517934070337E+07,
2460413.500000000, A.D. 2024-Apr-13 00:00:00.0000, -3.838913417778640E+08, -5.893844162769313E+08, 2.138901959954554E+07,
2460420.500000000, A.D. 2024-Apr-20 00:00:00.0000, -3.772666166908963E+08, -5.927525423978009E+08, 2.138988168024018E+07,
2460427.500000000, A.D. 2024-Apr-27 00:00:00.0000, -3.705892083956371E+08, -5.960378726475956E+08, 2.138775592217195E+07,
2460434.500000000, A.D. 2024-May-04 00:00:00.0000, -3.638598787396823E+08, -5.992396733628414E+08, 2.138263273820761E+07,
2460441.500000000, A.D. 2024-May-11 00:00:00.0000, -3.570793975527346E+08, -6.023572111514679E+08, 2.137450262914944E+07,
2460448.500000000, A.D. 2024-May-18 00:00:00.0000, -3.502485429172419E+08, -6.053897528075454E+08, 2.136335619534186E+07,
2460455.500000000, A.D. 2024-May-25 00:00:00.0000, -3.433681014637610E+08, -6.083365653181226E+08, 2.134918414275894E+07,
2460462.500000000, A.D. 2024-Jun-01 00:00:00.0000, -3.364388686312233E+08, -6.111969160194163E+08, 2.133197727361152E+07,
2460469.500000000, A.D. 2024-Jun-08 00:00:00.0000, -3.294616486457920E+08, -6.139700729251575E+08, 2.131172643726021E+07,
2460476.500000000, A.D. 2024-Jun-15 00:00:00.0000, -3.224372538188526E+08, -6.166553046818906E+08, 2.128842244961283E+07,
2460483.500000000, A.D. 2024-Jun-22 00:00:00.0000, -3.153665041693950E+08, -6.192518789759068E+08, 2.126205616952288E+07,
2460490.500000000, A.D. 2024-Jun-29 00:00:00.0000, -3.082502294923013E+08, -6.217590612124445E+08, 2.123261877823094E+07,
2460497.500000000, A.D. 2024-Jul-06 00:00:00.0000, -3.010892712274405E+08, -6.241761159384736E+08, 2.120010181750202E+07,
2460504.500000000, A.D. 2024-Jul-13 00:00:00.0000, -2.938844821805145E+08, -6.265023081854136E+08, 2.116449703864548E+07,
2460511.500000000, A.D. 2024-Jul-20 00:00:00.0000, -2.866367260815996E+08, -6.287369035833117E+08, 2.112579633854842E+07,
2460518.500000000, A.D. 2024-Jul-27 00:00:00.0000, -2.793468776375162E+08, -6.308791682059716E+08, 2.108399176450625E+07,
2460525.500000000, A.D. 2024-Aug-03 00:00:00.0000, -2.720158228051303E+08, -6.329283685219857E+08, 2.103907553210282E+07,
2460532.500000000, A.D. 2024-Aug-10 00:00:00.0000, -2.646444591198142E+08, -6.348837714561251E+08, 2.099104004042166E+07,
2460539.500000000, A.D. 2024-Aug-17 00:00:00.0000, -2.572336960317654E+08, -6.367446445393699E+08, 2.093987788182831E+07,
2460546.500000000, A.D. 2024-Aug-24 00:00:00.0000, -2.497844552224424E+08, -6.385102561698252E+08, 2.088558184172526E+07,
2460553.500000000, A.D. 2024-Aug-31 00:00:00.0000, -2.422976707856700E+08, -6.401798760459806E+08, 2.082814487241784E+07,
2460560.500000000, A.D. 2024-Sep-07 00:00:00.0000, -2.347742889081436E+08, -6.417527756458560E+08, 2.076756001766118E+07,
2460567.500000000, A.D. 2024-Sep-14 00:00:00.0000, -2.272152669643224E+08, -6.432282277559574E+08, 2.070382036123502E+07,
2460574.500000000, A.D. 2024-Sep-21 00:00:00.0000, -2.196215740546457E+08, -6.446055046370480E+08, 2.063691921913499E+07,
2460581.500000000, A.D. 2024-Sep-28 00:00:00.0000, -2.119941934743436E+08, -6.458838780539753E+08, 2.056685035610205E+07,
2460588.500000000, A.D. 2024-Oct-05 00:00:00.0000, -2.043341234428450E+08, -6.470626211679677E+08, 2.049360788986707E+07,
2460595.500000000, A.D. 2024-Oct-12 00:00:00.0000, -1.966423764543130E+08, -6.481410093116500E+08, 2.041718615964004E+07,
2460602.500000000, A.D. 2024-Oct-19 00:00:00.0000, -1.889199790001948E+08, -6.491183199178531E+08, 2.033757969727623E+07,
2460609.500000000, A.D. 2024-Oct-26 00:00:00.0000, -1.811679716960977E+08, -6.499938324038359E+08, 2.025478323858327E+07,
2460616.500000000, A.D. 2024-Nov-02 00:00:00.0000, -1.733874095555897E+08, -6.507668281595365E+08, 2.016879173905867E+07,
2460623.500000000, A.D. 2024-Nov-09 00:00:00.0000, -1.655793623142638E+08, -6.514365906193333E+08, 2.007960038692826E+07,
2460630.500000000, A.D. 2024-Nov-16 00:00:00.0000, -1.577449147780947E+08, -6.520024054172153E+08, 1.998720461119324E+07,
2460637.500000000, A.D. 2024-Nov-23 00:00:00.0000, -1.498851671490964E+08, -6.524635606754135E+08, 1.989160007639208E+07,
2460644.500000000, A.D. 2024-Nov-30 00:00:00.0000, -1.420012351199406E+08, -6.528193474693025E+08, 1.979278264159372E+07,
2460651.500000000, A.D. 2024-Dec-07 00:00:00.0000, -1.340942493180859E+08, -6.530690600481291E+08, 1.969074827965608E+07,
2460658.500000000, A.D. 2024-Dec-14 00:00:00.0000, -1.261653547880425E+08, -6.532119945876808E+08, 1.958549312007892E+07,
2460665.500000000, A.D. 2024-Dec-21 00:00:00.0000, -1.182157128302165E+08, -6.532474477155824E+08, 1.947701372685641E+07,
2460672.500000000, A.D. 2024-Dec-28 00:00:00.0000, -1.102465032235011E+08, -6.531747177766565E+08, 1.936530718805224E+07,
2460679.500000000, A.D. 2025-Jan-04 00:00:00.0000, -1.022589242341252E+08, -6.529931064627750E+08, 1.925037097327900E+07,
2460686.500000000, A.D. 2025-Jan-11 00:00:00.0000, -9.425419223195916E+07, -6.527019191479927E+08, 1.913220286204582E+07,
2460693.500000000, A.D. 2025-Jan-18 00:00:00.0000, -8.623354183112107E+07, -6.523004648481681E+08, 1.901080095227271E+07,
2460700.500000000, A.D. 2025-Jan-25 00:00:00.0000, -7.819822631120214E+07, -6.517880562799474E+08, 1.888616368812522E+07,
2460707.500000000, A.D. 2025-Feb-01 00:00:00.0000, -7.014951812934038E+07, -6.511640100495992E+08, 1.875828988758850E+07,
2460714.500000000, A.D. 2025-Feb-08 00:00:00.0000, -6.208870946441078E+07, -6.504276469524548E+08, 1.862717876626480E+07,
$$EOE